{"fetched_at":"2026-06-10T03:30:36Z","count":2234,"tles":[{"name":"UK-DMC 2","line1":"1 35683U 09041C   26159.88757111  .00001104  00000+0  16742-3 0  9998","line2":"2 35683  97.8828 295.0575 0001296  72.8745 287.2607 14.76019080905342","category":"Other"},{"name":"DEKART","line1":"1 46493U 20068H   26160.59101411  .00011342  00000+0  31370-3 0  9996","line2":"2 46493  97.8746 169.3179 0007411 320.1586  39.9112 15.37177003314606","category":"Other"},{"name":"PROBA-1","line1":"1 26958U 01049B   26160.63601220  .00003031  00000+0  19757-3 0  9997","line2":"2 26958  97.9600 168.9050 0055608 147.2231 213.2466 15.07464810342487","category":"Other"},{"name":"ATLAS 5 CENTAUR DEB","line1":"1 44694U 18079BG  26104.58588696 -.00000074  00000+0  00000+0 0  9990","line2":"2 44694  13.5564  44.4884 4738342 289.0155  26.7077  1.77432968 45438","category":"Other"},{"name":"ZHUHAI-1 OVS-02","line1":"1 43440U 18040B   26160.61991229  .00006589  00000+0  26729-3 0  9998","line2":"2 43440  97.0395 178.2987 0001552 298.1443  61.9639 15.24923313451564","category":"Other"},{"name":"CBERS 2B","line1":"1 32062U 07042A   26105.13460005  .00000128  00000+0  52544-4 0  9993","line2":"2 32062  98.3879  50.9026 0031304 162.3935 208.3978 14.41441735975609","category":"Other"},{"name":"ONEWEB-0006","line1":"1 44061U 19010E   26160.50909198  .00000153  00000+0  37215-3 0  9991","line2":"2 44061  87.9012 260.7142 0001801 102.2916 257.8417 13.15548480350413","category":"Other"},{"name":"UNISAT-7","line1":"1 47945U 21022P   26160.49395148  .00013256  00000+0  33067-3 0  9992","line2":"2 47945  97.3897  65.3387 0011226 100.7177 259.5334 15.40259098288676","category":"Other"},{"name":"2019-093L","line1":"1 44889U 19093L   26105.17794748  .00002107  00000+0  20183-3 0  9992","line2":"2 44889  97.7572 184.1961 0010293 259.3046 100.7015 14.94199730342398","category":"Other"},{"name":"EUCROPIS","line1":"1 43807U 18099BB  26160.49863691  .00007491  00000+0  34609-3 0  9995","line2":"2 43807  97.4226 216.3844 0004271 339.0991  21.0069 15.20468654411296","category":"Other"},{"name":"NORBI","line1":"1 46494U 20068J   26160.59546559  .00020943  00000+0  40015-3 0  9996","line2":"2 46494  97.8633 175.8928 0004475 283.9546  76.1205 15.48135587315032","category":"Other"},{"name":"NOAA 2 (ITOS-D)","line1":"1 06235U 72082A   26105.04930235 -.00000030  00000+0  10474-3 0  9997","line2":"2 06235 102.0127 122.9195 0003673 292.0943  88.4198 12.53213041447047","category":"Weather"},{"name":"WNISAT 1R","line1":"1 42835U 17042L   26160.36271541  .00002136  00000+0  16845-3 0  9998","line2":"2 42835  97.4831 316.7655 0010200 174.3163 185.8179 15.01728690485338","category":"Other"},{"name":"ZHUHAI-1 OHS-02","line1":"1 43441U 18040C   26160.60921736  .00007415  00000+0  29277-3 0  9994","line2":"2 43441  97.0379 185.2206 0007403 252.4259 107.6172 15.25771192113122","category":"Other"},{"name":"Z-SAT","line1":"1 49399U 21102E   26160.61856708  .00003487  00000+0  17328-3 0  9991","line2":"2 49399  97.3335 196.1713 0014785 274.4355  85.5190 15.18209436252296","category":"Other"},{"name":"GAOFEN-10R","line1":"1 44622U 19066A   26160.59721182  .00001088  00000+0  14050-3 0  9999","line2":"2 44622  98.0494 114.1213 0006160 148.6145 211.5437 14.83044118361253","category":"Other"},{"name":"ELEKTRO-L 3","line1":"1 44903U 19095A   26160.57082399 -.00000079  00000+0  00000+0 0  9997","line2":"2 44903   0.2362  81.2554 0001383 352.8656 105.2739  1.00272390 23635","category":"Other"},{"name":"COSMOS 2513","line1":"1 41121U 15075A   26160.64289698 -.00000123  00000+0  00000+0 0  9999","line2":"2 41121   0.0761  99.8064 0003531 327.6005 142.3121  1.00278178 38476","category":"Other"},{"name":"PROX-1","line1":"1 44339U 19036A   26160.35846098  .00011160  00000+0  10885-2 0  9992","line2":"2 44339  23.9928 166.5423 0005370 302.8767  57.1216 14.90423822372305","category":"Other"},{"name":"TAURUS-1 (JINNIUZUO 1)","line1":"1 44530U 19059C   26160.56189622  .00005638  00000+0  90586-3 0  9996","line2":"2 44530  98.6415 324.9178 0007718 343.2500  16.8449 14.72018496357521","category":"Other"},{"name":"SALSAT","line1":"1 46495U 20068K   26160.49232390  .00007245  00000+0  25454-3 0  9991","line2":"2 46495  97.8855 163.0891 0008742 339.5990  20.4898 15.29688082314186","category":"Other"},{"name":"STARLINK-37464","line1":"1 69266U 26117AE  26160.58337963 -.01926183  00000+0 -71835-2 0  9992","line2":"2 69266  53.1547 281.0620 0000965  61.5123 186.9256 15.90456343  2956","category":"Starlink"},{"name":"STARLINK-37365","line1":"1 69186U 26114E   26160.48815707  .00205617  00000+0  11578-2 0  9993","line2":"2 69186  53.1589 240.8773 0000970  63.2403 296.8718 15.78093674  3552","category":"Starlink"},{"name":"STARLINK-36515","line1":"1 67430U 26005AC  26160.09267713  .00015821  00000+0  58278-3 0  9992","line2":"2 67430  43.0025  81.9395 0000772 257.0863 102.9902 15.27603795 22662","category":"Starlink"},{"name":"EUTELSAT 65 WEST A","line1":"1 41382U 16014A   26160.40023299 -.00000259  00000+0  00000+0 0  9999","line2":"2 41382   0.0503   9.2450 0002248  59.6000 267.8320  1.00272213 37448","category":"Other"},{"name":"CANVAS","line1":"1 68635U 26074J   26160.35361241  .00008018  00000+0  32472-3 0  9994","line2":"2 68635  60.0214 208.1432 0028670  18.5753 341.6367 15.25161818  9596","category":"Other"},{"name":"GSAT0219 (GALILEO 23)","line1":"1 43566U 18060C   26158.53362059 -.00000063  00000+0  00000+0 0  9992","line2":"2 43566  57.1754 342.0461 0002283 330.3501  29.6519  1.70475974 49026","category":"GPS"},{"name":"GPS BIIF-9","line1":"1 40534U 15013A   26159.58617870  .00000071  00000+0  00000+0 0  9997","line2":"2 40534  53.1681 204.5335 0109392  40.1405 320.7391  2.00551984 81651","category":"GPS"},{"name":"STARLINK-37061","line1":"1 68185U 26050U   26160.39688885  .00023584  00000+0  70695-3 0  9992","line2":"2 68185  53.1587 199.3770 0001068  69.3345 290.7772 15.34399898 14749","category":"Starlink"},{"name":"STARLINK-37262","line1":"1 68508U 26068A   26160.44531243  .00015167  00000+0  45889-3 0  9996","line2":"2 68508  53.1596  55.8112 0000847  70.7314 289.3780 15.34415351 11091","category":"Starlink"},{"name":"BEIDOU-3 M12","line1":"1 43602U 18067A   26159.31766145  .00000110  00000+0  00000+0 0  9993","line2":"2 43602  54.1798 181.3412 0007741  30.1174 329.9822  1.86227940 52951","category":"GPS"},{"name":"STEAMSAT-2","line1":"1 51099U 22003F   23266.52424660  .03899538  10048-4  22509-2 0  9991","line2":"2 51099  44.8997 358.6139 0015779 350.5472   9.5145 16.17674046 95120","category":"Other"},{"name":"GPS BIIA-15 (PRN 27)","line1":"1 22108C 92058A   08002.69761574 -.00000000  00000-0  00000-0 0 43632","line2":"2 22108  55.4181  55.9728 0212563 259.5934 349.7284  2.00570085    16","category":"GPS"},{"name":"STARLINK-11370 [DTC]","line1":"1 61584U 24187L   26160.41145117  .00002383  00000+0  24509-4 0  9994","line2":"2 61584  53.1588 204.2895 0001060  78.9823 281.1314 15.69722271 95152","category":"Starlink"},{"name":"STARLINK-36448","line1":"1 67354U 26003W   26160.43001334  .00019165  00000+0  70373-3 0  9993","line2":"2 67354  43.0003  69.0288 0002002 267.3043  92.7580 15.27599809 22852","category":"Starlink"},{"name":"KUIPER-00053","line1":"1 64513U 25134P   26160.34620349  .00001767  00000+0  25042-3 0  9996","line2":"2 64513  51.8992 177.0993 0001170 161.5151 198.5855 14.81690270 53793","category":"Other"},{"name":"GEOEYE 1","line1":"1 33331U 08042A   26160.50084235  .00000419  00000+0  87663-4 0  9996","line2":"2 33331  98.1235 234.5293 0005565  87.9185 272.2655 14.64718674949021","category":"Other"},{"name":"STARLINK-2649","line1":"1 48680U 21044AU  23362.45796359  .00001620  00000+0  12767-3 0  9995","line2":"2 48680  53.0538 112.9752 0001601 111.0848 249.0312 15.06390087143839","category":"Starlink"},{"name":"CZ-2D DEB","line1":"1 58144U 23163D   23326.54509887  .00058083  00000+0  21997-2 0  9992","line2":"2 58144  34.9936 120.9735 0005633 187.8237 172.2391 15.25809123  4531","category":"Other"},{"name":"STARLINK-32761","line1":"1 62749U 25014Q   26160.25907405  .00015888  00000+0  58585-3 0  9990","line2":"2 62749  43.0019   0.5531 0002083 262.9686  97.0928 15.27568055 77220","category":"Starlink"},{"name":"LIJIAN-2 R/B","line1":"1 68413U 26066B   26101.54261256  .09641538 -22498-5  32370-3 0  9998","line2":"2 68413  84.6612 269.1527 0231306 167.1991 193.5311 15.98167465  1862","category":"Other"},{"name":"USA 65 (DSP 15)","line1":"1 20929U 90095A   26137.85776742 -.00000239  00000+0  00000+0 0  9993","line2":"2 20929  14.0229 344.2585 0004129  77.0151 271.5150  0.98398790 25168","category":"Military"},{"name":"PICSAT","line1":"1 43132U 18004X   23274.90669177  .16535587  25409-5  24982-3 0  9992","line2":"2 43132  97.2902   3.7671 0010678 260.9850  99.0246 16.48076850319334","category":"Other"},{"name":"STARLINK-5255","line1":"1 54208U 22141BD  26160.53723055 -.00003650  00000+0 -21129-3 0  9997","line2":"2 54208  53.1664 276.7997 0001449  75.0318 285.0834 15.08843198200217","category":"Starlink"},{"name":"STARLINK-34540","line1":"1 65657U 25211F   26160.09143327  .00004631  00000+0  32473-3 0  9999","line2":"2 65657  97.3847 203.4072 0000871 311.8168  48.2984 15.05651404 40797","category":"Starlink"},{"name":"COSMOS 2251 DEB","line1":"1 36053U 93036AXQ 26104.45519179  .00003298  00000+0  70278-3 0  9990","line2":"2 36053  73.8678 276.8391 0031909 199.3258 160.6699 14.59072039892335","category":"Other"},{"name":"STARLINK-3570","line1":"1 51882U 22022AG  26160.13062696  .00004416  00000+0  29554-3 0  9992","line2":"2 51882  53.1681 308.5870 0001293  83.0890 277.0249 15.08820181237102","category":"Starlink"},{"name":"STARLINK-31420","line1":"1 59223U 24046Y   26160.50518294  .00002915  00000+0  11052-3 0  9994","line2":"2 59223  53.1616  89.0874 0001580  57.5078 302.6076 15.30202429127098","category":"Starlink"}]}